{
  "type": "FeatureCollection",
  "features": [
    {
      "type": "Feature",
      "properties": {
        "role": "route"
      },
      "geometry": {
        "type": "LineString",
        "coordinates": [
          [
            115.2138,
            -8.6561
          ],
          [
            115.2129,
            -8.6595
          ],
          [
            115.2085,
            -8.657
          ]
        ]
      }
    },
    {
      "type": "Feature",
      "properties": {
        "checkpointId": "contoh-tepi-sungai-cp1",
        "orderIndex": 0,
        "placeId": "contoh-monumen-lapangan-kota"
      },
      "geometry": {
        "type": "Point",
        "coordinates": [
          115.2138,
          -8.6561
        ]
      }
    },
    {
      "type": "Feature",
      "properties": {
        "checkpointId": "contoh-tepi-sungai-cp2",
        "orderIndex": 1,
        "placeId": "contoh-pasar-pagi-timur"
      },
      "geometry": {
        "type": "Point",
        "coordinates": [
          115.2129,
          -8.6595
        ]
      }
    },
    {
      "type": "Feature",
      "properties": {
        "checkpointId": "contoh-tepi-sungai-cp3",
        "orderIndex": 2,
        "placeId": "contoh-puri-gerbang-utara"
      },
      "geometry": {
        "type": "Point",
        "coordinates": [
          115.2085,
          -8.657
        ]
      }
    }
  ]
}
